[{"OBJECT_NAME":"JILIN-1","OBJECT_ID":"2015-057D","EPOCH":"2026-03-09T23:20:41.450208","MEAN_MOTION":14.7799363,"ECCENTRICITY":0.00159161,"INCLINATION":97.6518,"RA_OF_ASC_NODE":73.2783,"ARG_OF_PERICENTER":222.7613,"MEAN_ANOMALY":137.2362,"EPHEMERIS_TYPE":0,"CLASSIFICATION_TYPE":"U","NORAD_CAT_ID":40961,"ELEMENT_SET_NO":999,"REV_AT_EPOCH":56095,"BSTAR":0.00014277196,"MEAN_MOTION_DOT":9.83e-6,"MEAN_MOTION_DDOT":0},{"OBJECT_NAME":"CSTB 1","OBJECT_ID":"2007-012F","EPOCH":"2026-03-09T21:40:39.805536","MEAN_MOTION":14.72593257,"ECCENTRICITY":0.00636395,"INCLINATION":98.4141,"RA_OF_ASC_NODE":68.0118,"ARG_OF_PERICENTER":219.6201,"MEAN_ANOMALY":140.0346,"EPHEMERIS_TYPE":0,"CLASSIFICATION_TYPE":"U","NORAD_CAT_ID":31122,"ELEMENT_SET_NO":999,"REV_AT_EPOCH":693,"BSTAR":0.00042600934,"MEAN_MOTION_DOT":2.741e-5,"MEAN_MOTION_DDOT":0}]
